province,station_name,icao,iata,synop,latitude,longitude,elevation_m,metar,nexrad,aviation,upper_air,auto_type,office_type,country
AB,ABEE AGDM,CXAF,,7128,54 17,112 58W,664,Yes,,,,,,CA
AB,ANDREW AGDM,CXAG,,7128,53 55,112 17W,625,Yes,,,,,,CA
AB,ATMORE AGDM,CXAJ,,7128,54 46,112 49W,574,Yes,,,,,,CA
AB,BANFF (MARS),CWZG,WZG,,51 12,115 32W,397,Yes,,,,,,CA
AB,BARNWELL AGDM,CXBW,,7134,49 48,112 18W,824,Yes,,,,,,CA
AB,BEAVERLODGE,CWBM,,7123,55 12,119 24W,745,Yes,,,,,,CA
AB,BODO AGDM,CXBA,,7121,52 07,110 06W,687,Yes,,,,,,CA
AB,BOW ISLAND,CWXL,WXL,7123,49 44,111 27W,817,Yes,,,,,,CA
AB,BOW VALLEY,CWXA,WXA,7123,51 04,115 04W,298,Yes,,,,,,CA
AB,BROCKET AGDM,CXBR,,7134,49 37,113 49W,073,Yes,,,,,,CA
AB,BROOKS (AUTOB),CWBO,WBO,7145,50 32,111 50W,747,Yes,,,,,,CA
AB,CALGARY INTNL AR,CYYC,YYC,7187,51 07,114 01W,084,Yes,,TAF,,,,CA
AB,CALGARY INTL,CPCI,,7139,51 07,114 01W,081,Yes,,,,,,CA
AB,CALGARY/SPRINGBA,CYBW,YBW,7186,51 06,114 22W,200,Yes,,TAF,,,,CA
AB,CARDSTON (AUT),CWFJ,WFJ,7115,49 12,113 16W,136,Yes,,,,,,CA
AB,CHAMPION AGDM,CXCP,,7121,50 17,113 21W,006,Yes,,,,,,CA
AB,CLARESHOLM (AUTO,CWDK,WDK,7123,50 01,113 37W,012,Yes,,,,,,CA
AB,CLEARDALE AGDM,CXCD,,7122,56 19,119 45W,630,Yes,,,,,,CA
AB,COLD LAKE (CAN,CYOD,YOD,7112,54 24,110 17W,544,Yes,,TAF,Military,,,CA
AB,CONSORT AGDM,CXCS,,7122,51 56,110 43W,772,Yes,,,,,,CA
AB,CORONATION(AUT),CWCT,WCT,,52 04,111 28W,791,Yes,,,,,,CA
AB,CROWSNEST,CWRT,WRT,7123,49 37,114 28W,303,Yes,,,,,,CA
AB,DAPP AGDM,CXDP,,7134,54 19,113 57W,614,Yes,,,,,,CA
AB,DEL BONITA AGDM,CXDB,,7122,49 03,112 49W,310,Yes,,,,,,CA
AB,DRUMHELLER EAST,CWDZ,WDZ,,51 25,112 40W,678,Yes,,,,,,CA
AB,EDMONTON INTL AR,CYEG,YEG,7112,53 17,113 34W,723,Yes,,TAF,,,,CA
AB,EDMONTON INTL AR,CXEG,XEG,7115,53 18,113 36W,715,Yes,,,,,,CA
AB,EDMONTON MUNI,CXEC,XEC,7115,53 34,113 31W,671,Yes,,,,,,CA
AB,EDMONTON MUNICIP,CYXD,YXD,7187,53 34,113 31W,671,Yes,,TAF,,,,CA
AB,EDMONTON/NAMAO(M,CYED,YED,7112,53 40,113 28W,688,Yes,,TAF,Military,,,CA
AB,EDMONTON/STONY P,CWSE,WSE,7111,53 32,114 05W,766,,,,Rawinsonde,,,CA
AB,EDMONTON/STONY P,CZED,ZED,7112,53 33,114 06W,766,Yes,,,TAF,,,CA
AB,EDMONTON/STONY P,CXPS,,,53 33,114 06W,766,Yes,,,,,,CA
AB,EDMONTON/VILLENU,CZVL,,,53 40,113 51W,686,Yes,,TAF,,,,CA
AB,EDSON AIRPORT,CYET,YET,7188,53 34,116 28W,925,Yes,,,,,,CA
AB,EDSON,CZZJ,,7115,53 35,116 28W,927,Yes,,,,,,CA
AB,ESTHER 1,CWGY,WGY,7124,51 40,110 12W,707,Yes,,,,,,CA
AB,FAIRVIEW AGDM,CXFR,,7134,56 05,118 26W,655,Yes,,,,,,CA
AB,FOREMOST AGDM,CXFM,,7122,49 29,111 29W,881,Yes,,,,,,CA
AB,FORT CHIPEWYAN A,CYPY,YPY,7193,58 46,111 07W,232,Yes,,TAF,,,,CA
AB,FORT MCMURRAY AR,CYMM,YMM,7193,56 39,111 13W,369,Yes,,TAF,,,,CA
AB,FORT MCMURRAY AR,CXMM,XMM,7158,56 39,111 13W,369,Yes,,,,,,CA
AB,FORT VERMILLION,CXFV,,,58 23,116 02W,289,Yes,,,,,,CA
AB,GRANDE PRAIRE AR,CYQU,YQU,7194,55 11,118 53W,669,Yes,,TAF,,,,CA
AB,HIGH LEVEL AIRPO,CYOJ,YOJ,7106,58 37,117 10W,338,Yes,,TAF,,,,CA
AB,HIGH PRAIRIE AGD,CXHP,,7122,55 24,116 29W,602,Yes,,,,,,CA
AB,HIGHVALE,CWHA,WHA,7124,53 27,114 28W,747,Yes,,,,,,CA
AB,HOLDEN AGDM,CXHD,,7122,53 11,112 15W,688,Yes,,,,,,CA
AB,HUSSAR AGDM,CXHR,,7134,51 11,112 30W,971,Yes,,,,,,CA
AB,JASPER WARDEN (A,CWJW,WJW,7148,52 56,118 02W,020,Yes,,,,,,CA
AB,KILLAM AGDM,CXKM,,7122,52 49,111 51W,675,Yes,,,,,,CA
AB,LAC LA BICHE (MA,CWLB,WLB,7193,54 46,112 01W,567,Yes,,,,,,CA
AB,LETHBRIDGE VOR,CYQL,YQL,7187,49 38,112 48W,929,Yes,,TAF+AIRMET/SIGMET,,,,CA
AB,LLOYDMINSTER ARP,CYLL,YLL,7187,53 19,110 04W,669,Yes,,TAF,,,,CA
AB,MANNING AGDM,CXMG,,7122,56 58,117 27W,457,Yes,,,,,,CA
AB,MASINASIN AGDM,CXMN,,7134,49 07,111 39W,947,Yes,,,,,,CA
AB,MEDICINE HAT,CYXH,YXH,7187,50 01,110 43W,716,Yes,,TAF+AIRMET/SIGMET,,,,CA
AB,MEDICINE HAT,CXMH,,7102,50 02,110 43W,717,Yes,,,,,,CA
AB,MILK RIVER,CWRY,WRY,7124,49 07,112 02W,050,Yes,,,,,,CA
AB,MORRIN AGDM,CXMO,,7125,51 40,112 41W,836,Yes,,,,,,CA
AB,MUNDARE AGDM,CZMU,,7135,53 34,112 18W,683,Yes,,,,,,CA
AB,NORDEGG CS,CXND,,,52 28,116 05W,362,Yes,,,,,,CA
AB,OLDS AGDM,CXOL,,7125,51 46,114 05W,046,Yes,,,,,,CA
AB,OLIVER AGDM,CZOL,,7135,53 39,113 21W,665,Yes,,,,,,CA
AB,OYEN AGDM,CXOY,,7134,51 23,110 21W,767,Yes,,,,,,CA
AB,ONEFOUR (AUTOB),CWOE,WOE,7111,49 07,110 28W,935,Yes,,,,,,CA
AB,PEACE RIVER AIRP,CYPE,YPE,7106,56 13,117 27W,571,Yes,,TAF,,,,CA
AB,PEORIA AGDM,CXPA,,7134,55 37,118 18W,621,Yes,,,,,,CA
AB,PINCHER CREEK(M,CZPC,ZPC,7187,49 31,114 00W,190,Yes,,,,,,CA
AB,POLLOCKVILLE AGD,CXPL,,7125,51 08,111 42W,750,Yes,,,,,,CA
AB,PRAIRIE RIVER,CXPV,XPV,7159,58 27,111 40W,213,Yes,,,,,,CA
AB,PRENTISS,CZPS,,7135,52 26,113 36W,965,Yes,,,,,,CA
AB,PRIMROSE LAKE,CWIQ,WIQ,7112,54 45,110 02W,702,Yes,,,,,,CA
AB,PRIMROSE LAKE 2,CWOU,WOU,7112,54 46,110 04W,606,Yes,,,,,,CA
AB,RED DEER AIRPORT,CYQF,YQF,7187,52 10,113 54W,905,Yes,,TAF,,,,CA
AB,RICH LAKE AGDM,CXRL,,7134,54 30,111 42W,585,Yes,,,,,,CA
AB,ROCKY HOUSE (MAR,CWRM,WRM,,52 25,114 55W,988,Yes,,,,,,CA
AB,SCHULER AGDM,CXSC,,7126,50 18,110 05W,800,Yes,,,,,,CA
AB,SCHULER RADAR,CXBU,,,50 29,110 12W,777,,Yes,,,,,CA
AB,SLAVE LAKE AIRPO,CYZH,YZH,7106,55 17,114 46W,581,Yes,,TAF,,,,CA
AB,SMOKY LAKE AGDM,CXSL,,7127,54 17,112 30W,680,Yes,,,,,,CA
AB,SPIRIT RIVER,CXSR,XSR,7157,55 42,119 14W,015,Yes,,,,,,CA
AB,STETTLER AGDM,CXAK,,7128,52 21,112 36W,795,Yes,,,,,,CA
AB,ST PAUL AGDM,CXSP,,7127,54 01,111 16W,649,Yes,,,,,,CA
AB,SUFFIELD AIRPORT,CYSD,YSD,7112,50 16,111 10W,770,Yes,,,,,,CA
AB,SUNDRE,CWAV,WAV,7124,51 46,114 40W,114,Yes,,,,,,CA
AB,THREE HILLS,CWHI,WHI,7124,51 42,113 13W,907,Yes,,,,,,CA
AB,TURTLE MTN CS,CWQA,,7125,49 35,114 25W,164,Yes,,,,,,CA
AB,TWO HILLS AGDM,CXTH,,7127,53 38,111 41W,678,Yes,,,,,,CA
AB,VALLEYVIEW AGDM,CXVW,,,55 06,117 12W,698,Yes,,,,,,CA
AB,VEGREVILLE (AUTO,CWVI,,7145,53 31,112 06W,639,Yes,,,,,,CA
AB,VERMILION AGDM,CXVM,,,53 21,110 53W,623,Yes,,,,,,CA
AB,VILNA AG,CPVI,,7176,54 08,111 55W,645,Yes,,,,,,CA
AB,WATERTON PARK GA,CWGM,WGM,7115,49 08,113 47W,296,Yes,,,,,,CA
AB,WHITECOURT AIRPO,CYZU,YZU,7193,54 09,115 47W,785,Yes,,TAF,,,,CA
AB,WHITECOURT AIRPO,CXZU,XZU,7125,54 09,115 47W,785,Yes,,,,,,CA
AB,WRENTHAN AGDM,CXWM,,7134,49 30,112 07W,944,Yes,,,,,,CA
AB,YOHO PARK (AUTOB,CWYL,WYL,7178,51 27,116 19W,615,Yes,,,,,,CA
AB,BLOOD TRIBE AGDM,CPBT,,7151,49 34,113 03W,980,Yes,,,,,,CA
AB,ENCHANT AGDM,CPEH,,7151,50 11,112 26W,801,Yes,,,,,,CA
AB,FINCASTLE AGDM,CPFI,,7153,49 48,112 02W,833,Yes,,,,,,CA
AB,IRON SPRINGS,CPIR,,7152,49 54,112 44W,858,Yes,,,,,,CA
AB,LETHBRIDGE DEMO,CPQL,,7150,49 41,112 45W,903,Yes,,,,,,CA
AB,ROSEMARY AGDM,CPRO,,7153,50 50,112 03W,714,Yes,,,,,,CA
AB,RAYMOND AGDM,CPRY,,7153,49 29,112 41W,937,Yes,,,,,,CA
AB,STRATHMORE AGDM,CPST,,7152,51 02,113 17W,967,Yes,,,,,,CA
AB,SEVEN PERSONS,CPSV,,7152,49 55,110 55W,766,Yes,,,,,,CA
AB,BOW ISLAND AGDM,CPXL,,7151,49 52,111 23W,799,Yes,,,,,,CA
BC,ABBOTSFORD AIRPO,CYXX,YXX,7110,49 02,122 23W,58,Yes,,TAF,,,,CA
BC,ADDENBROKE ISL (,CWCZ,WCZ,,51 36,127 52W,21,Yes,,,,,,CA
BC,AGASSIZ (AUTO),CWZA,WZA,7111,49 15,121 46W,15,Yes,,,,,,CA
BC,AMPHITRITE POINT,CWAN,WAN,7111,48 55,125 32W,27,Yes,,,,,,CA
BC,ASHCROFT,CVAS,,7168,50 43,121 17W,327,Yes,,,,,,CA
BC,BALLENAS IL AUTO,CWGB,WGB,7176,49 21,124 10W,5,Yes,,,,,,CA
BC,BELLA COOLA ARPT,CYBD,YBD,7120,52 22,126 34W,35,Yes,,,,,,CA
BC,BELLA BELLA,CBBC,,,52 11,128 09W,43,Yes,,TAF,,,,CA
BC,BIG CREEK(AUTO),CWBG,WBG,,51 15,123 04W,670,Yes,,,,,,CA
BC,BLEIBLER RANCH,CYIN,,,51 16,121 41W,128,Yes,,,,,,CA
BC,BLUE RIVER (MAN),CYCP,YCP,7188,52 08,119 17W,683,Yes,,,,,,CA
BC,BLUE RIVER (MARS,CWSV,WSV,,52 06,119 17W,683,Yes,,,,,,CA
BC,BOAT BLUFF (LGT,CWZM,WZM,,52 39,128 31W,15,Yes,,,,,,CA
BC,BONILLA ISL (MAP,CWWL,WWL,7148,53 30,130 38W,17,Yes,,,,,,CA
BC,BONILLA ISLAND (,CWVB,WVB,,53 30,130 38W,16,Yes,,,,,,CA
BC,BURNS LAKE,CWPZ,WPZ,7195,54 23,125 58W,713,Yes,,,,,,CA
BC,CAMPBELL RIVER A,CYBL,YBL,,49 57,125 16W,106,Yes,,TAF,,,,CA
BC,CAPE MUDGE (LGT,CWAD,WAD,,50 00,125 12W,4,Yes,,,,,,CA
BC,CAPE SCOTT (LGT,CWES,WES,7111,50 46,128 25W,72,Yes,,,,,,CA
BC,CAPE ST JAMES,CWZV,WZV,7110,51 56,131 01W,92,Yes,,,,,,CA
BC,CASTLEGAR AIRPOR,CYCG,YCG,7188,49 17,117 37W,495,Yes,,TAF,,,,CA
BC,CATHEDRAL PT(MAP,CWME,WME,7148,52 11,127 28W,32,Yes,,,,,,CA
BC,CHATHAM POINT (L,CWFM,WFM,,50 20,125 27W,23,Yes,,,,,,CA
BC,CHETWYND AIRPORT,CYCQ,YCQ,,55 42,121 37W,609,Yes,,,,,,CA
BC,CLINTON (MARS),CWCL,WCL,7147,51 08,121 30W,057,Yes,,,,,,CA
BC,COMOX (CAN MIL),CYQQ,YQQ,7189,49 43,124 54W,24,Yes,,TAF,,,,CA
BC,CRANBROOK,CYXC,YXC,7188,49 36,115 46W,939,Yes,,TAF+AIRMET/SIGMET,,,,CA
BC,CRESTON (AUTOB),CWJR,WJR,7177,49 04,116 30W,646,Yes,,,,,,CA
BC,CUMSHEWA ISL (MA,CWZL,WZL,,53 02,131 36W,17,Yes,,,,,,CA
BC,DAWSON CREEK ARP,CYDQ,YDQ,,55 45,120 10W,655,Yes,,TAF,,,,CA
BC,DEASE LAKE,CWDL,,7195,58 26,130 01W,816,Yes,,,,,,CA
BC,DEASE LAKE,CYDL,,,58 25,130 01W,816,Yes,,TAF,,,,CA
BC,DEASE LAKE CS,CWKX,WKX,7122,58 26,130 01W,793,Yes,,,,,,CA
BC,DISCOVERY ISLAND,CWDR,,7103,48 25,123 14W,17,Yes,,,,,,CA
BC,DRYAD POINT (LGT,CWAU,WAU,,52 11,128 07W,4,Yes,,,,,,CA
BC,EGG ISLAND,CWEM,WEM,,51 15,127 50W,14,Yes,,,,,,CA
BC,ENTRANCE IL AUTO,CWEL,WEL,7177,49 13,123 47W,5,Yes,,,,,,CA
BC,ESQUIMALT METOC,CWPF,WPF,,48 26,123 26W,12,Yes,,,,,,CA
BC,ESTEVAN PT. (MAR,CWEB,WEB,7189,49 23,126 33W,7,Yes,,,,,,CA
BC,FANNY ISLAND,CXFA,,7156,50 27,126 00W,5,Yes,,,,,,CA
BC,FORT NELSON AIRP,CYYE,YYE,7194,58 49,122 34W,382,Yes,,TAF,Rawinsonde,,,CA
BC,FORT ST. JOHN AR,CYXJ,YXJ,7194,56 15,120 44W,695,Yes,,TAF,,,,CA
BC,GOLDEN ARPT,CYGE,YGE,,51 18,116 59W,785,Yes,,,,,,CA
BC,GREEN ISLAND (MT,CWNJ,,,54 34,130 42W,12,Yes,,,,,,CA
BC,GREY ISLET (MAPS,CWEK,WEK,7147,54 35,130 42W,8,Yes,,,,,,CA
BC,HELMCKEN ISL(MAP,CWXM,WXM,7148,50 23,125 52W,19,Yes,,,,,,CA
BC,HERBERT ISL (MAP,CWLP,WLP,7148,50 56,127 38W,17,Yes,,,,,,CA
BC,HOLBERG CCR,CWXH,WXH,7156,50 38,128 08W,568,Yes,,,,,,CA
BC,HOLLAND ROCK(AUT,CWHL,WHL,7144,54 10,130 21W,5,Yes,,,,,,CA
BC,HOPE AIRPORT (MA,CYHE,YHE,7111,49 22,121 30W,39,Yes,,,,,,CA
BC,HOPE SLIDE,CWKV,WKV,,49 16,121 13W,674,Yes,,,,,,CA
BC,HORSEFLY R.71761,CWFR,WFR,,52 16,121 02W,846,Obsolete,,,,,,CA
BC,HOSKINS ISLET,CWZK,,7177,52 32,131 33W,8,Yes,,,,,,CA
BC,ISKUT RIVER(AUTO,CWIO,WIO,,56 43,131 40W,15,Yes,,,,,,CA
BC,IVORY ISLAND,CWJG,WJG,,52 16,128 25W,10,Yes,,,,,,CA
BC,KAMLOOPS AIRPORT,CYKA,YKA,7188,50 42,120 27W,346,Yes,,TAF,,,,CA
BC,KAMLOOPS,CZKA,,,50 42,120 26W,345,Yes,,,,,,CA
BC,KELOWNA APT,CYLW,YLW,7120,49 57,119 22W,430,Yes,,TAF,Military,,,CA
BC,KELP REEFS 71036,CWZO,WZO,,48 33,123 14W,1,Obsolete,,,,,,CA
BC,KINDAKUN ROCKS(A,CWQS,WQS,7147,53 19,132 46W,14,Yes,,,,,,CA
BC,LANGARA,CWJU,WJU,7190,54 15,133 04W,41,Yes,,,,,,CA
BC,LANGARA,CWLA,WLA,7189,54 15,133 04W,41,Yes,,,,,,CA
BC,LUCY ISL (LGT H),CWLC,WLC,,54 18,130 37W,27,Yes,,,,,,CA
BC,LYTTON (READAC),CWLY,WLY,7189,50 13,121 35W,229,Yes,,,,,,CA
BC,MACKENZIE AIRPOR,CYZY,YZY,7194,55 17,123 07W,690,Yes,,TAF,,,,CA
BC,MALAHAT (AUTOB),CWKH,WKH,7177,48 34,123 33W,366,Yes,,,,,,CA
BC,MASSET,CZMT,,,54 02,132 08W,8,Yes,,TAF,,,,CA
BC,MCINNES ISLAND,CWMS,WMS,7189,52 16,128 43W,26,Yes,,,,,,CA
BC,MERRY ISLAND,CWMR,WMR,,49 28,123 55W,8,Yes,,,,,,CA
BC,MT SICKER RADAR,CXSI,,,48 52,123 45W,1,,Yes,,,,,CA
BC,MUNCHO LAKE,CWWQ,WWQ,,58 56,125 46W,837,Yes,,,,,,CA
BC,NAKUSP (AUTOB),CWNP,WNP,7121,50 16,117 49W,524,Yes,,,,,,CA
BC,NANAIMO AIRPORT,CYCD,YCD,7189,49 03,123 52W,30,Yes,,TAF,,,,CA
BC,NECHAKO RIVER AU,CWNX,WNX,,53 40,124 49W,715,Yes,,,,,,CA
BC,NELSON (AUTOB),CWNM,WNM,7177,49 30,117 17W,535,Yes,,,,,,CA
BC,NITINAT LAKE (MA,CWAC,WAC,7148,48 40,124 50W,41,Yes,,,,,,CA
BC,NOOTKA LIGHTSTAT,CWCV,WCV,,49 36,126 37W,16,Yes,,,,,,CA
BC,OSOYOOS (AUTOB),CWYY,WYY,7121,49 02,119 26W,283,Yes,,,,,,CA
BC,P. MEADOWS CS AU,CWMM,WMM,7177,49 13,122 41W,5,Yes,,,,,,CA
BC,PEMBERTON (AUTOB,CWGP,WGP,7177,50 18,122 44W,204,Obsolete,,,,,,CA
BC,PEMBERTON (AUTOB,CYPS,WGE,,50 18,122 44W,204,,,,,,,CA
BC,PENTICTON AIRPOR,CYYF,YYF,7188,49 28,119 35W,344,Yes,,TAF,,,,CA
BC,PINE ISLAND (MAP,CWPI,WPI,7110,50 59,127 44W,9,Yes,,,,,,CA
BC,PORT ALBERNI (MA,CWQC,WQC,7147,49 19,124 56W,53,Yes,,,,,,CA
BC,PORT HARDY AIRPO,CYZT,YZT,7110,50 40,127 22W,22,Yes,,TAF,Rawinsonde,,,CA
BC,POWELL RIVER ARP,CYPW,YPW,7120,49 49,124 30W,130,Yes,,,,,,CA
BC,PRINCE GEORGE,CYXS,YXS,7190,53 54,122 41W,691,Yes,,TAF,Rawinsonde,,,CA
BC,PRINCE GEORGE,CXPG,,,53 37,122 57W,101,,Yes,,,,,CA
BC,PRINCE RUPERT AR,CYPR,YPR,7189,54 17,130 25W,34,Yes,,TAF,,,,CA
BC,PRINCETON,CWPR,WPR,7103,49 28,120 31W,700,Yes,,,,,,CA
BC,PRINCETON,CYDC,YDC,7188,49 28,120 31W,700,Yes,,AIRMET/SIGMET,,,,CA
BC,PUNTZI MTN (MARS,CWPU,WPU,7105,52 07,124 07W,910,Yes,,,,,,CA
BC,QUATSINO (LGT ST,CWIF,WIF,,50 26,128 02W,21,Yes,,,,,,CA
BC,QUESNEL AIRPORT,CYQZ,YQZ,7110,53 01,122 31W,545,Yes,,TAF,,,,CA
BC,RACE ROCKS AUTOB,CWQK,WQK,7177,48 18,123 32W,5,Yes,,,,,,CA
BC,REVELSTOKE AIRPO,CYRV,YRV,7188,50 58,118 10W,443,Yes,,,,,,CA
BC,ROSE SPIT (MAPS),CWRO,WRO,7147,54 10,131 40W,7,Yes,,,,,,CA
BC,SALMON ARM AUTOB,CWSL,WSL,7121,50 42,119 16W,351,Yes,,,,,,CA
BC,SAND HEADS (LS),CWVF,WVF,,49 06,123 18W,1,Yes,,,,,,CA
BC,SANDSPIT AIRPORT,CYZP,YZP,7110,53 15,131 49W,6,Yes,,TAF,,,,CA
BC,SARTINE ISL (MAP,CWFG,WFG,7147,50 49,128 54W,111,Yes,,,,,,CA
BC,SATURNA ISL (MAP,CWEZ,WEZ,7147,48 47,123 03W,7,Yes,,,,,,CA
BC,SCUDDER POINT,CWZD,,,52 27,131 14W,5,Yes,,,,,,CA
BC,SHERINGHAM AUTOB,CWSP,WSP,7178,48 23,123 55W,21,Yes,,,,,,CA
BC,SILVER STAR RADR,CXSS,,,50 22,119 04W,681,,Yes,,,,,CA
BC,SIKANNI CHIEF AU,CWKS,WKS,,57 15,122 43W,937,Yes,,,,,,CA
BC,SISTERS IL AUTOB,CWGT,,7178,49 29,124 26W,5,Yes,,,,,,CA
BC,SMITHERS AIRPORT,CYYD,YYD,7195,54 49,127 11W,523,Yes,,TAF,,,,CA
BC,SOLANDER ISL (MA,CWRU,WRU,7147,50 07,127 56W,98,Yes,,,,,,CA
BC,SPARWOOD (AUTOB),CWGW,WGW,7178,49 45,114 54W,137,Yes,,,,,,CA
BC,SPARWOOD/ELK VAL,CWSW,WSW,,49 45,114 52W,138,Yes,,,,,,CA
BC,SQUAMISH (AUTOB),CWSK,WSK,7120,49 47,123 10W,60,Yes,,,,,,CA
BC,SQUAMISH (AUTOB),CYSE,,,49 47,123 10W,52,Yes,,,,,,CA
BC,STEWART AIRPORT,CZST,ZST,7195,55 56,129 59W,7,Yes,,,,,,CA
BC,SUMMERLAND (AUTO,CWUS,WUS,7176,49 34,119 39W,454,Yes,,,,,,CA
BC,TATLAYOKO LAKE,CXTL,,7102,51 40,124 24W,875,Yes,,,,,,CA
BC,TERRACE AIRPORT,CYXT,YXT,7195,54 28,128 34W,217,Yes,,TAF,,,,CA
BC,TETSA RIVER,CWTH,WTH,,58 39,124 14W,804,Yes,,,,,,CA
BC,TOFINO AIRPORT,CYAZ,YAZ,7110,49 05,125 46W,24,Yes,,TAF,,,,CA
BC,TRIPLE ISLAND (L,CWTI,WTI,7110,54 18,130 53W,21,Yes,,,,,,CA
BC,VANCOUVER (AUTOB,CWHC,WHC,7120,49 17,123 07W,2,Yes,,,,,,CA
BC,VANCOUVER INTL A,CYVR,YVR,7189,49 10,123 10W,2,Yes,,TAF,Military,,,CA
BC,VERNON (AUTOB),CWJV,WJV,7111,50 13,119 11W,556,Yes,,,,,,CA
BC,VERNON BRIDGE,CWVK,WVK,7303,50 13,119 16W,555,,,,Rawinsonde,,,CA
BC,VIC. HARTLAND AU,CWVV,WVV,,48 31,123 28W,49,Yes,,,,,,CA
BC,VICTORIA (AUTOB),CWLM,WLM,7120,48 25,123 19W,70,Yes,,,,,,CA
BC,VICTORIA HARBOUR,CYWH,YWH,,48 25,123 23W,10,Yes,,TAF,,,,CA
BC,VICTORIA INTL AR,CYYJ,YYJ,7179,48 39,123 26W,19,Yes,,TAF,,,,CA
BC,VICTORIA UNIV,CWYJ,WYJ,7178,48 27,123 18W,39,Yes,,,,,,CA
BC,W VANCOUVER AUTO,CWWA,WWA,7178,49 21,123 10W,178,Yes,,,,,,CA
BC,WHISTLER,CWAE,WAE,,50 08,122 57W,658,Yes,,,,,,CA
BC,WHITE ROCK AUTOB,CWWK,WWK,7178,49 01,122 47W,15,Yes,,,,,,CA
BC,WILLIAMS LAKE AR,CYWL,YWL,7110,52 11,122 04W,940,Yes,,TAF,,,,CA
BC,INGENIKA PT CWWU,,,,56 47,124 54W,680,Obsolete,,,,,,CA
MB,ARNES,CWRE,,,50 48,096 57W,221,Yes,,,,,,CA
MB,BERENS RIVER APT,CYBV,YBV,,52 21,097 02W,222,Yes,,,,,,CA
MB,BERENS RIVER APT,CWCF,WCF,7115,52 21,097 02W,222,Yes,,,,,,CA
MB,BRANDON AIRPORT,CYBR,YBR,7114,49 55,099 57W,409,Yes,,TAF,,,,CA
MB,CARMAN U OF M,CWNK,WNK,7114,49 30,098 02W,268,Yes,,,,,,CA
MB,CHURCHILL AIRPOR,CYYQ,YYQ,7191,58 45,094 04W,29,Yes,,TAF,Rawinsonde,,,CA
MB,DAUPHIN,CYDN,YDN,7103,51 06,100 03W,305,Yes,,TAF,,,,CA
MB,DEERWOOD RCS,CXDW,XDW,7184,49 24,098 19W,341,Yes,,,,,,CA
MB,DELTA MARSH CS,CZUG,,7156,50 11,098 23W,248,Yes,,,,,,CA
MB,EMERSON,CWEX,,7156,49 00,097 14W,242,Yes,,,,,,CA
MB,FISHER BRANCH(MA,CWSZ,WSZ,7144,51 04,097 32W,253,Yes,,,,,,CA
MB,FLIN FLON AIRPOR,CYFO,YFO,,54 40,101 40W,304,Yes,,,,,,CA
MB,FOXWARREN RADAR,CXFW,,,50 33,101 06W,547,,Yes,,,,,CA
MB,GEORGE ISL (MAPS,CWWS,WWS,7144,52 49,097 37W,223,Yes,,,,,,CA
MB,GILLAM AIRPORT,CYGX,YGX,7191,56 21,094 42W,145,Yes,,TAF,,,,CA
MB,GILLAM AIRPORT,CWGX,WGX,,56 21,094 42W,145,Yes,,,,,,CA
MB,GIMLI,CYGM,YGM,7185,50 37,097 01W,230,Yes,,,,,,CA
MB,GIMLI HARBOUR,CXGH,,7157,50 38,097 00W,217,Yes,,,,,,CA
MB,GRAND RAPIDS (MA,CWJD,WJD,7185,53 10,099 16W,223,Yes,,,,,,CA
MB,GRETNA (MARS),CWGN,WGN,7144,49 01,097 34W,251,Yes,,,,,,CA
MB,HUNTERS POINT MA,CWHH,WHH,7114,53 02,100 56W,256,Yes,,,,,,CA
MB,ISLAND LAKE AIRP,CYIV,YIV,7114,53 51,094 39W,237,Yes,,TAF,Military,,,CA
MB,KELSEY DAM CS,CZKD,,7157,56 02,096 31W,183,Yes,,,,,,CA
MB,LYNN LAKE AIRPOR,CYYL,YYL,7107,56 52,101 04W,357,Yes,,TAF,Military,,,CA
MB,MELITA,CWEI,,7144,49 17,100 59W,446,Yes,,,,,,CA
MB,MORDEN,CXMD,XMD,7156,49 13,098 05W,301,Yes,,,,,,CA
MB,PILOT MOUND (MAR,CWPO,WPO,7114,49 12,098 54W,470,Yes,,,,,,CA
MB,PORTAGE SOUTHPOR,CYPG,YPG,7185,49 53,098 16W,269,Yes,,TAF,,,,CA
MB,SHILO,CWLO,WLO,7185,49 46,099 37W,373,Yes,,,,,,CA
MB,SWAN RIVER (MARS,CWEQ,WEQ,7144,52 07,101 13W,335,Yes,,,,,,CA
MB,TADOULE LAKE CS,CXBQ,,7133,58 42,098 30W,262,Yes,,,,,,CA
MB,TADOULE LAKE,CYBQ,,,58 42,098 30W,262,Yes,,,,,,CA
MB,THE PAS AIRPORT,CYQD,YQD,7186,53 58,101 05W,271,Yes,,TAF,Rawinsonde,,,CA
MB,THOMPSON AIRPORT,CYTH,YTH,7107,55 47,097 52W,218,Yes,,TAF,,,,CA
MB,VICTORIA BEACH,CWII,WII,7155,50 42,096 34W,220,Yes,,,,,,CA
MB,VIVIAN RADAR,CWVJ,,,49 53,096 28W,290,,Yes,,,,,CA
MB,WINNIPEG INTL AR,CYWG,YWG,7185,49 53,097 13W,239,Yes,,TAF+AIRMET/SIGMET,,,,CA
MB,WINNIPEG,CXWI,,7184,49 53,097 08W,251,,,,,,,CA
MB,WINNIPEG FORKS,CXWN,XWN,7157,49 53,097 08W,230,Yes,,,,,,CA
MB,NORWAY HOUSE ARP,CYNE,YNE,,53 58,097 49W,223,Yes,,TAF,,,,CA
NB,BATHURST ARPT(AW,CZBF,ZBF,7157,47 37,065 45W,59,Yes,,TAF,,,,CA
NB,CHARLO AIRPORT,CZCR,,7171,47 58,066 19W,38,Yes,,,,,,CA
NB,CHIPMAN RADAR,CXNC,,,46 13,065 42W,1,,Yes,,,,,CA
NB,EDMUNSTON,CERM,,,47 25,068 19W,154,Yes,,,,,,CA
NB,FREDERICTON AIRP,CYFC,YFC,7170,45 52,066 31W,20,Yes,,TAF,,,,CA
NB,GAGETOWN  (CAN M,CYCX,YCX,7170,45 49,066 25W,51,Yes,,TAF,,,,CA
NB,GRAND MANAN,CXGM,,7103,44 43,066 48W,78,Yes,,,,,,CA
NB,MECHANIC SETTLE,CWMK,,,45 42,065 10W,1,,Yes,,,,,CA
NB,MIRAMICHI,CACQ,YCH,7171,47 01,065 28W,31,Yes,,TAF,,,,CA
NB,MISCOU ISL (MARS,CWMI,WMI,7171,48 01,064 30W,3,Yes,,,,,,CA
NB,MONCTON AIRPORT,CYQM,YQM,7170,46 07,064 40W,71,Yes,,TAF,,,,CA
NB,POINT LEPREAU,CWPE,WPE,,45 04,066 28W,1,Yes,,,,,,CA
NB,PT. ESCUMINAC(MA,CWPJ,WPJ,7141,47 04,064 47W,5,Yes,,,,,,CA
NB,SAINT JOHN,CYSJ,YSJ,7160,45 19,065 52W,109,Yes,,TAF+AIRMET/SIGMET,,,,CA
NB,SAINT LEONARD AR,CYSL,YSL,7170,47 08,067 49W,241,Yes,,TAF,,,,CA
NB,ST LEONARD AUTOB,CWIY,WIY,7101,47 08,067 49W,241,Yes,,,,,,CA
NB,ST. STEPHEN (MAR,CWSS,WSS,7160,45 12,067 15W,26,Yes,,,,,,CA
NB,CHARLO AIRPORT,CYCL,,,47 59,066 20W,38,Obsolete,,,,,,CA
NB,CHATHAM,CYCH,,,47 00,065 27W,31,Obsolete,,,,,,CA
NB,MIRAMICHI (AU8),CWCQ,WCQ,,47 00,065 28W,34,Obsolete,,,,,,CA
NL,ARGENTIA (MARS),CWAR,WAR,7180,47 17,054 00W,16,Yes,,,,,,CA
NL,BADGER (MARS),CWDI,WDI,7140,48 58,056 04W,105,Yes,,,,,,CA
NL,BONAVISTA,CWVA,WVA,7119,48 40,053 07W,27,Yes,,,,,,CA
NL,BURGEO,CWBF,,,47 37,057 38W,12,Yes,,,,,,CA
NL,CAPE KAKKIVIAK,CWKW,WKW,7117,59 58,064 10W,551,Yes,,,,,,CA
NL,CAPE KIGLAPAIT,CWYK,WYK,7117,57 07,061 28W,834,Yes,,,,,,CA
NL,CAPE RACE (MARS),CWRA,WRA,7180,46 38,053 04W,28,Yes,,,,,,CA
NL,CARTWRIGHT,CWCA,,7181,53 42,057 01W,14,Yes,,,,,,CA
NL,CARTWRIGHT,CYCA,,,53 41,057 02W,12,Yes,,TAF,,,,CA
NL,CHURCHILL FALLS,CZUM,ZUM,7118,53 32,064 05W,440,Yes,,TAF,,,,CA
NL,DANIEL'S HARBOUR,CWDH,WDH,7118,50 13,057 34W,19,Yes,,,,,,CA
NL,DEER LAKE AIRPOR,CYDF,YDF,7180,49 13,057 24W,22,Yes,,TAF,,,,CA
NL,ENGLEE (MAPS),CWDA,WDA,7141,50 43,056 07W,29,Yes,,,,,,CA
NL,FEROLLE PT. (MAP,CWXI,WXI,,51 01,057 06W,6,Yes,,,,,,CA
NL,GANDER INTL AIRP,CYQX,YQX,7180,48 57,054 35W,151,Yes,,TAF,,,,CA
NL,GOOSE BAY AIRPOR,CYYR,YYR,7181,53 19,060 25W,49,Yes,,TAF,Rawinsonde,,,CA
NL,GRATES COVE,CWVW,,7133,48 10,052 56W,18,Yes,,,,,,CA
NL,HOLYROOD RADAR,CWTP,,,47 20,053 11W,1,,Yes,,,,,CA
NL,HOPEDALE (MAPS),CWHO,WHO,7190,55 27,060 13W,8,Yes,,,,,,CA
NL,LA SCIE,CWAG,,7133,49 55,055 40W,192,Yes,,,,,,CA
NL,LONG POND,CWWU,,,47 31,052 59W,13,Yes,,TAF,,,,CA
NL,MAKKOVIK AIRPORT,CYFT,YFT,,55 04,059 10W,71,Yes,,,,,,CA
NL,MARBLE MTN RADAR,CXME,,,48 56,057 50W,1,,Yes,,,,,CA
NL,MARY'S HARBOUR,CYMH,YMH,,52 17,055 51W,11,Yes,,TAF,,,,CA
NL,NAIN AIRPORT,CYDP,YDP,7190,56 32,061 40W,7,Yes,,TAF,,,,CA
NL,PORT AUX BASQUES,CWZB,WZB,7119,47 34,059 10W,40,Yes,,,Military,,,CA
NL,ROCKY HARBOUR,CXRH,XRH,7158,49 34,057 53W,68,Yes,,,,,,CA
NL,SAGLEK (BAY),CWZZ,WZZ,7180,58 19,062 34W,483,Yes,,,,,,CA
NL,SAGONA ISL (MAPS,CWZN,WZN,7140,47 22,055 48W,64,Yes,,,,,,CA
NL,SAINT ANTHONY,CWAX,WAX,7181,51 23,056 05W,111,Yes,,,,,,CA
NL,SAINT ANTHONY,CWDW,,7155,51 23,056 06W,29,Yes,,,,,,CA
NL,SAINT ANTHONY AR,CYAY,YAY,7183,51 23,056 04W,28,Yes,,TAF,,,,CA
NL,ST JOHNS ARP,CYYT,YYT,7180,47 37,052 43W,140,Yes,,TAF,Rawinsonde,,,CA
NL,ST JOHNS WEST,CXSW,,7158,47 31,052 47W,114,Yes,,,,,,CA
NL,STEPHENVILLE ARP,CYJT,YJT,7181,48 33,058 34W,26,Yes,,TAF,Rawinsonde,,,CA
NL,TERRA NOVA,CXTP,XTP,7158,48 33,053 58W,107,Yes,,,,,,CA
NL,TUKIALIK BAY,CWTU,WTU,7117,54 43,058 21W,683,Yes,,,,,,CA
NL,TWILLINGATE (MAP,CWDO,,7140,49 40,054 47W,92,Yes,,,,,,CA
NL,WABUSH LAKE AIRP,CYWK,YWK,7182,52 55,066 52W,551,Yes,,TAF,,,,CA
NL,WRECKHOUSE,CXWR,,7158,47 43,059 19W,33,Yes,,,,,,CA
NS,AMHERST (MARS),CWAH,WAH,7141,45 51,064 16W,23,Yes,,,,,,CA
NS,BEAVER ISLAND(MA,CWBV,WBV,7140,44 49,062 19W,10,Yes,,,,,,CA
NS,BRIER ISLAND(AUT,CWVU,WVU,,44 17,066 20W,16,Yes,,,,,,CA
NS,CAPE GEORGE (AUT,CWGU,WGU,,45 52,061 54W,120,Yes,,,,,,CA
NS,CARIBOU POINT(MA,CWBK,WBK,7141,45 46,062 40W,2,Yes,,,,,,CA
NS,CHETICAMP,CXCH,XCH,,46 38,060 57W,44,Yes,,,,,,CA
NS,DEBERT,CZDB,,7131,45 25,063 28W,38,Yes,,,,,,CA
NS,DIGBY ARPT (AWRS,CYID,YID,,44 32,065 46W,152,Yes,,,,,,CA
NS,FOURCHU HEAD(MAP,CWRW,WRW,7141,45 43,060 13W,10,Yes,,,,,,CA
NS,GRAND ETANG (AUT,CWZQ,WZQ,7141,46 32,061 03W,17,Yes,,,,,,CA
NS,GREENWOOD (CAN M,CYZX,YZX,7139,44 59,064 55W,28,Yes,,TAF,,,,CA
NS,HALIFAX INTL ARP,CYHZ,YHZ,7139,44 52,063 30W,145,Yes,,TAF,,,,CA
NS,HART ISLAND (MAP,CWRN,WRN,7141,45 21,060 59W,8,Yes,,,,,,CA
NS,INGONISH BEACH,CXIB,XIB,7102,46 40,060 23W,8,Yes,,,,,,CA
NS,KEJIMKUJIK (AU8),CWKG,WKG,7159,44 26,065 12W,165,Yes,,,,,,CA
NS,KENTVILLE (AUTOB,CXKT,XKT,7160,45 04,064 29W,49,Yes,,,,,,CA
NS,LUNENBURG,CXLB,,,44 22,064 18W,4,Yes,,,,,,CA
NS,MALAY FALLS,CXMY,XMY,,44 59,062 29W,40,Yes,,,,,,CA
NS,MARION BRIDGE,CXMB,,,45 57,060 12W,1,,Yes,,,,,CA
NS,MCNABS ISLAND,CXMI,XMI,,44 36,063 32W,15,Yes,,,,,,CA
NS,NAPPAN (AUTO),CXNP,,7131,45 45,064 14W,20,Yes,,,,,,CA
NS,NORTH MOUNTAIN,CXNM,XNM,,46 49,060 40W,439,Yes,,,,,,CA
NS,PORT HAWKESBURY,CYPD,YPD,,45 40,061 22W,114,Yes,,,,,,CA
NS,ROWAN GORILLA II,CWXO,WXO,,43 52,060 32W,44,Yes,,,,,,CA
NS,SABLE ISLAND,CWSA,,7160,43 56,060 00W,4,Yes,,TAF,Rawinsonde,,,CA
NS,SABLE ISLAND(APT,CYSA,YSA,,43 55,060 00W,4,Yes,,TAF,,,,CA
NS,SHEARWATER(CAN M,CYAW,YAW,7160,44 38,063 30W,51,Yes,,TAF,,,,CA
NS,SHELBURNE,CWOS,WOS,7139,43 43,065 15W,30,,,,Military,,,CA
NS,ST. PAUL ISL(MAP,CWEF,WEF,7141,47 13,060 07W,26,Yes,,,,,,CA
NS,SYDNEY AIRPORT,CYQY,YQY,7170,46 10,060 02W,62,Yes,,TAF,,,,CA
NS,TRACADIE,CXTD,,7130,45 37,061 41W,68,Yes,,,,,,CA
NS,TRENTON MUNICIPA,CYTN,YTN,,45 37,062 37W,97,Yes,,,,,,CA
NS,TRURO (MARS),CWUR,WUR,7139,45 22,063 16W,40,Yes,,,,,,CA
NS,WESTERN HEAD (MA,CWWE,WWE,7141,43 58,064 40W,9,Yes,,,,,,CA
NS,YARMOUTH AIRPORT,CYQI,YQI,7160,43 50,066 05W,43,Yes,,TAF,Rawinsonde,,,CA
NT,AKLAVIK AIRPORT,CYKD,YKD,,68 13,135 00W,7,Yes,,,,,,CA
NT,CAPE PARRY AUTO4,CZCP,,,70 10,124 43W,93,Yes,,,,,,CA
NT,COLVILLE LAKE,CYVL,,,67 01,126 08W,259,Yes,,,,,,CA
NT,DEADMAN VALLEY,CXDK,,7102,61 16,124 28W,283,Yes,,,,,,CA
NT,DELINE,CXDE,XDE,7150,65 13,123 26W,213,Yes,,,,,,CA
NT,EKATI (PWS),CYOA,YOA,,64 42,110 37W,469,Yes,,TAF,,,,CA
NT,FORT FRANKLIN AR,CYWJ,YWJ,,65 13,123 26W,176,Yes,,TAF,,,,CA
NT,FORT GOOD HOPE A,CYGH,YGH,,66 16,128 37W,66,Yes,,TAF,,,,CA
NT,FORT LIARD AIRPO,CYJF,YJF,,60 13,123 28W,215,Yes,,,,,,CA
NT,FORT MCPHERSON A,CZFM,ZFM,,67 24,134 52W,43,Yes,,TAF,,,,CA
NT,FORT NORMAN AIRP,CZFN,ZFN,,64 55,125 34W,98,Yes,,,,,,CA
NT,FORT PROVIDENCE,CWID,WID,7108,61 19,117 36W,161,Yes,,,,,,CA
NT,FORT RESOLUTION,CYFR,YFR,,61 10,113 40W,164,Yes,,,,,,CA
NT,FORT SIMPSON ARP,CYFS,YFS,7194,61 45,121 13W,169,Yes,,TAF,,,,CA
NT,FT SIMPSON 71681,CXFS,,,61 45,121 14W,169,Obsolete,,,,,,CA
NT,FORT SIMPSON,CZFS,,7136,61 46,121 14W,168,Yes,,,,,,CA
NT,FORT SMITH AIRPO,CYSM,YSM,7193,60 02,111 58W,203,Yes,,TAF,Rawinsonde,,,CA
NT,FORT SMITH,CZSM,,7136,60 02,111 56W,203,Yes,,,,,,CA
NT,GATESHEAD ISLAND,CNGH,,7114,70 38,100 16W,20,Yes,,,,,,CA
NT,HAY RIVER AIRPOR,CYHY,YHY,7193,60 49,115 46W,166,Yes,,TAF,,,,CA
NT,HAY RIVER,CZHY,,7136,60 50,115 47W,164,Yes,,,,,,CA
NT,HANBURY RIVER,CWQY,,7196,63 36,105 08W,318,Yes,,,,,,CA
NT,HOLMAN ISLAND AR,CYHI,YHI,,70 46,117 47W,36,Yes,,TAF,,,,CA
NT,HOLMAN CS,CXHI,,7102,70 46,117 48W,30,Yes,,,,,,CA
NT,INDIAN RIVER,CWIE,WIE,7116,64 23,115 01W,478,Yes,,,,,,CA
NT,INUVIK AIRPORT,CYEV,YEV,7195,68 19,133 30W,68,Yes,,TAF,Rawinsonde,,,CA
NT,INUVIK,CZEV,,7136,68 19,133 31W,103,Yes,,,,,,CA
NT,JEAN MARIER,CXJM,,7115,61 21,120 47W,227,Yes,,,,,,CA
NT,KEATS POINT,CWKP,,7105,69 40,121 40W,330,Yes,,,,,,CA
NT,LAC LA MARTRE,CWMT,,7116,63 08,117 15W,271,Yes,,,,,,CA
NT,LINDBERG LANDING,CXLL,,7168,61 07,122 51W,183,Yes,,,,,,CA
NT,LIVERPOOL BAY,CWLI,WLI,7196,69 35,130 54W,102,Yes,,,,,,CA
NT,LOWER CARP LAKE,CXLC,XLC,7168,63 36,113 51W,373,Yes,,,,,,CA
NT,LUTSEL KE ARPT (,CYLK,YLK,,62 25,110 40W,179,Yes,,TAF,,,,CA
NT,LUTSEL KE CS,CXLU,,7152,62 25,110 40W,179,Yes,,,,,,CA
NT,MOULD BAY,CYMD,YMD,7107,76 13,119 19W,12,Yes,,,Military,,,CA
NT,MOULD BAY CAMP,CWMD,WMD,,76 13,119 19W,12,Yes,,,,,,CA
NT,NORMAN WELLS ARP,CYVQ,YVQ,7104,65 16,126 47W,74,Yes,,TAF,Rawinsonde,,,CA
NT,PAULATUK AIRPORT,CYPC,YPC,,69 22,124 04W,6,Yes,,TAF,,,,CA
NT,PELLY ISLAND,CWND,,7150,69 38,135 26W,12,Yes,,,,,,CA
NT,QAVVIK LAKE,CXQA,,7158,68 15,122 06W,530,Yes,,,,,,CA
NT,RAE LAKES,CYRA,YRA,,64 07,117 19W,213,Yes,,TAF,,,,CA
NT,RAE LAKES,CWYH,,7116,64 07,117 22W,220,Yes,,,,,,CA
NT,ROBERTSON LAKE,CWTD,,7149,65 06,102 26W,244,Yes,,,,,,CA
NT,SACHS HARBOUR(M,CYSY,YSY,7105,72 00,125 16W,86,Yes,,TAF,,,,CA
NT,TRAIL VALLEY,CXTV,XTV,7168,68 45,133 30W,85,Yes,,,,,,CA
NT,TUKTOYAKTUK,CYUB,YUB,7195,69 27,133 01W,5,Yes,,TAF,Military,,,CA
NT,TUKTUT NOGAIT NP,CXTN,XTN,7149,69 12,122 21W,552,Yes,,,,,,CA
NT,WEKWEETI,CYWE,,,64 11,114 05W,371,Yes,,TAF,,,,CA
NT,WRIGLEY AIRPORT,CYWY,YWY,,63 13,123 25W,150,Yes,,,,,,CA
NT,YELLOWKNIFE AIRP,CYZF,YZF,7193,62 28,114 27W,206,Yes,,TAF,,,,CA
NT,YOHIN,CXYH,,7102,61 15,123 45W,204,Yes,,,,,,CA
NT,CANADA/ARTCC,CZVE,ZVE,,70 10,124 41W,1,,,ARTCC,,,,CA
NU,ALERT,CWLT,WLT,7108,82 30,062 19W,63,Yes,,,Rawinsonde,,,CA
NU,ALERT AIRPORT,CYLT,YLT,,82 31,062 16W,31,Yes,,TAF,,,,CA
NU,ALERT,CZLT,,7135,82 30,062 20W,65,Yes,,,,,,CA
NU,ARCTIC BAY CS,CXAT,XAT,7159,73 00,085 02W,19,Yes,,,,,,CA
NU,ARCTIC BAY,CYAB,,,73 00,085 03W,22,Yes,,TAF,,,,CA
NU,ARVIAT AIRPORT,CYEK,YEK,,61 06,094 04W,10,Yes,,TAF,,,,CA
NU,ARVIAT CLIMATE,CXAR,,7133,61 06,094 04W,10,Yes,,,,,,CA
NU,BAKER LAKE AIRPO,CYBK,YBK,7192,64 17,096 04W,18,Yes,,TAF,Rawinsonde,,,CA
NU,BAKER LAKE,CXBL,,7135,64 19,096 00W,51,Yes,,,,,,CA
NU,BREVOORT ISLAND,CWOB,WOB,7109,63 19,064 09W,367,Yes,,,,,,CA
NU,QIKIQTARJUAQ,CYVM,,7133,67 32,064 01W,6,Yes,,TAF,,,,CA
NU,BROUGHTON ISLAND,CWVD,WVD,,67 31,063 46W,573,Yes,,,,,,CA
NU,BROWN RIVER,CWBR,,7104,66 02,091 50W,31,Yes,,,,,,CA
NU,CAMBRIDGE BAY AR,CYCB,YCB,7192,69 05,105 07W,27,Yes,,TAF,Rawinsonde,,,CA
NU,CAMBRIDGE BAY,CXCM,,7128,69 06,105 08W,19,Yes,,,,,,CA
NU,CAPE DORSET AIRP,CYTE,YTE,7191,64 13,076 31W,47,Yes,,TAF,,,,CA
NU,CAPE DYER AIRPOR,CWFD,WFD,7109,66 34,061 35W,393,Yes,,,,,,CA
NU,CAPE HOOPER,CWUP,WUP,7109,68 28,066 49W,390,Yes,,,,,,CA
NU,CAPE MERCY,CWYM,WYM,7197,64 57,063 34W,583,Yes,,,,,,CA
NU,CAPE PEEL WEST,CWPX,WPX,7106,69 01,107 49W,165,Yes,,,,,,CA
NU,CHESTERFIELD INL,CYCS,YCS,,63 21,090 43W,11,Yes,,,,,,CA
NU,COPPERMINE AIRPO,CYCO,YCO,7193,67 49,115 09W,22,Yes,,TAF,,,,CA
NU,CORAL HARBOUR AR,CYZS,YZS,7191,64 12,083 22W,64,Yes,,TAF,Rawinsonde,,,CA
NU,CROKER RIVER,CWXR,WXR,7105,69 16,119 13W,69,Yes,,,,,,CA
NU,CYLDE AIRPORT,CYCY,YCY,7109,70 28,068 31W,26,Yes,,TAF,,,,CA
NU,DEWAR LAKES,CWUW,WUW,7109,68 39,071 10W,527,Yes,,,,,,CA
NU,ENNADAI LAKE (MA,CWJC,WJC,7192,61 08,100 54W,357,Yes,,,,,,CA
NU,EUREKA,CWEU,,7191,80 00,085 55W,10,Yes,,,Rawinsonde,,,CA
NU,EUREKA,CYEU,,,80 00,085 49W,78,Yes,,TAF,,,,CA
NU,FROBISHER/IQALUI,CYFB,YFB,7190,63 45,068 33W,34,Yes,,TAF,Rawinsonde,,,CA
NU,GJOA HAVEN AIRPO,CYHK,YHK,,68 37,095 50W,46,Yes,,TAF,,,,CA
NU,GJOA HAVEN,CZHK,,7136,68 38,095 51W,42,Yes,,,,,,CA
NU,GRISE FIORD AIR,CWGZ,WGZ,,76 25,082 54W,45,Yes,,,,,,CA
NU,HALL BEACH AIRPO,CYUX,,7108,68 46,081 15W,8,Yes,,TAF,Rawinsonde,,,CA
NU,HALL BEACH,CXUX,,7132,68 47,081 15W,8,Yes,,,,,,CA
NU,HAT ISLAND,CWIL,WIL,7108,68 19,100 04W,36,Yes,,,,,,CA
NU,IGLOOLIK AIRPORT,CYGT,YGT,,69 22,081 49W,51,Yes,,TAF,,,,CA
NU,ISACHSEN (MAPS),CWIC,WIC,7107,78 47,103 33W,58,Yes,,,,,,CA
NU,LADY FRANKLIN PO,CYUJ,YUJ,7193,68 30,113 13W,16,Yes,,,,,,CA
NU,LAKE HARBOUR ARP,CYLC,YLC,,62 51,069 52W,53,Yes,,,,,,CA
NU,LONGSTAFF BLUFF,CWLX,WLX,7109,68 54,075 09W,162,Yes,,,,,,CA
NU,LUPIN ARPT (SAWR,CYWO,YWO,7149,65 46,111 15W,494,Yes,,TAF,,,,CA
NU,LUPIN (MAPS),CWIJ,WIJ,,65 46,111 14W,500,Yes,,,,,,CA
NU,NANISIVIK AIRPOR,CYSR,YSR,,72 58,084 37W,649,Yes,,TAF,,,,CA
NU,PANGNIRTUNG AIRP,CYXP,YXP,,66 09,065 43W,23,Yes,,TAF,,,,CA
NU,PELLY BAY 1,CWRF,WRF,7191,69 25,089 43W,325,Yes,,,,,,CA
NU,PELLY BAY AIRPOR,CYBB,YBB,,68 31,089 49W,15,Yes,,TAF,,,,CA
NU,POND INLET AIRPO,CYIO,YIO,7109,72 40,077 58W,57,Yes,,TAF,,,,CA
NU,RAE POINT,CZRP,,7198,75 22,105 43W,12,Yes,,,,,,CA
NU,RANKIN INLET ARP,CYRT,YRT,7108,62 49,092 07W,32,Yes,,TAF,,,,CA
NU,REPULSE BAY AIRP,CYUT,YUT,,66 31,086 15W,24,Yes,,TAF,,,,CA
NU,RESOLUTE AIRPORT,CYRB,YRB,7192,74 43,094 58W,67,Yes,,TAF,Rawinsonde,,,CA
NU,RESOLUTE CS,CXRB,,7101,74 43,094 59W,30,Yes,,,,,,CA
NU,RESOLUTION IS,CWRH,WRH,7197,61 34,064 39W,369,Yes,,,,,,CA
NU,ROWLEY ISLAND,CWRX,WRX,7108,69 04,079 01W,41,Yes,,,,,,CA
NU,SANIKILUAQ AIRPO,CYSK,YSK,,56 32,079 15W,26,Yes,,,,,,CA
NU,SHEPHERD BAY ARP,CYUS,YUS,7191,68 49,093 25W,42,Yes,,,,,,CA
NU,SPENCE BAY AIRPO,CYYH,YYH,,69 32,093 34W,28,Yes,,TAF,,,,CA
NU,STEFANSSON IS,CXSE,,7101,73 46,105 17W,11,Yes,,,,,,CA
NU,WAGER BAY,CXWB,,,65 53,089 27W,18,Yes,,,,,,CA
NU,WHALE COVE AIRPO,CYXN,YXN,,62 13,092 35W,20,Yes,,,,,,CA
NU,IQALUIT CLIMATE,CXFB,,,63 45,068 33W,34,Obsolete,,,,,,CA
ON,ATIKOKAN (AUT),CWCH,WCH,7174,48 45,091 37W,424,Yes,,,,,,CA
ON,ATTAWAPISKAT,CYAT,,,52 56,082 26W,9,Yes,,,,,,CA
ON,BANCROFT AUTOB,CWRK,WRK,,45 04,077 52W,331,Yes,,,,,,CA
ON,BARRIE (MARS),CWCU,WCU,7143,44 22,079 46W,295,Yes,,,,,,CA
ON,BARRIE-ORO,CXBI,,7131,44 29,079 33W,289,Yes,,,,,,CA
ON,BEAUSOLEIL ISL A,CWPB,WPB,7127,44 51,079 52W,183,Yes,,,,,,CA
ON,BELLE RIVER AUT0,CWDD,WDD,7127,42 17,082 42W,184,Yes,,,,,,CA
ON,BIG TROUT LAKE,CWTL,WTL,,53 49,089 53W,222,,,,Military,,,CA
ON,BIG TROUT LAKE,CYTL,YTL,7184,53 49,089 53W,224,Yes,,TAF,,,,CA
ON,BORDEN,CYBN,YBN,7153,44 16,079 55W,223,Yes,,TAF,,,,CA
ON,BRITT (MARS),CWBI,WBI,7163,45 48,080 32W,190,Yes,,,,,,CA
ON,BURLINGTON PIERS,CWWB,WWB,7143,43 18,079 47W,76,Yes,,,,,,CA
ON,CAMERON FALLS,CXCA,XCA,7129,49 09,088 21W,228,Yes,,,,,,CA
ON,CARIBOU ISL (MAP,CWCI,WCI,7143,47 19,085 49W,187,Yes,,,,,,CA
ON,CHAPLEAU ARPT(SA,CYLD,YLD,,47 49,083 20W,447,Yes,,TAF,,,,CA
ON,CHATHAM,CYCK,,,42 18,082 05W,198,Yes,,,,,,CA
ON,COBOURG (MARS),CWNC,,7143,43 57,078 10W,78,Yes,,,,,,CA
ON,COLLINGWOOD (AUT,CWCO,WCO,7127,44 27,080 10W,221,Yes,,,,,,CA
ON,COVE ISLAND (MAP,CWWX,WWX,7143,45 19,081 44W,181,Yes,,,,,,CA
ON,CYPRUS LAKE CS,CXCY,XCY,,45 14,081 32W,190,Yes,,,,,,CA
ON,DELHI CS (AUT),CXDI,XDI,7157,42 52,080 33W,232,Yes,,,,,,CA
ON,DRYDEN AIRPORT,CYHD,YHD,,49 49,092 45W,413,Yes,,TAF,,,,CA
ON,DRYDEN,CXDR,,,49 51,092 48W,413,Yes,,,,,,CA
ON,EAR FALLS (AUT),CXEA,XEA,7129,50 38,093 13W,355,Yes,,,,,,CA
ON,EARLTON AIRPORT,CYXR,YXR,7173,47 42,079 50W,243,Yes,,TAF,,,,CA
ON,EARLTON,CZXR,,7153,47 42,079 50W,243,Yes,,,,,,CA
ON,EGBERT CS,CXET,XET,7129,44 14,079 47W,251,Yes,,,,,,CA
ON,EGBERT (MAPS),CWET,,7156,44 14,079 47W,251,Yes,,,,,,CA
ON,ELLIOT LAKE (SAW,CYEL,YEL,,46 21,082 34W,329,Yes,,TAF,,,,CA
ON,ELORA RCS,CZEL,,7135,43 39,080 25W,376,Yes,,,,,,CA
ON,ERIEAU (MAPS),CWAJ,WAJ,7146,42 15,081 54W,178,Yes,,,,,,CA
ON,EXETER RADAR,CWSO,,,43 22,081 23W,1,,Yes,,,,,CA
ON,FT SEVERN,CYER,,7109,56 01,087 41W,16,Yes,,,,,,CA
ON,FRANKTOWN,CXFT,,,45 02,076 06W,122,Yes,,,,,,CA
ON,GERALDTON AIRPOR,CYGQ,YGQ,7183,49 46,086 55W,351,Yes,,TAF,,,,CA
ON,GODERICH (AUTOB),CWGD,WGD,7126,43 46,081 43W,214,Yes,,,,,,CA
ON,GORE BAY AIRPORT,CYZE,YZE,7173,45 52,082 34W,193,Yes,,TAF,,,,CA
ON,GREAT DUCK ISLAN,CWNL,WNL,7146,45 37,082 58W,183,Yes,,,,,,CA
ON,GRENADIER ISLAND,CWGH,WGH,7128,44 25,075 51W,82,Yes,,,,,,CA
ON,HAMILTON AIRPORT,CYHM,YHM,7126,43 10,079 56W,238,Yes,,TAF,,,,CA
ON,HAMILTON RBG CS,CXHM,XHM,7129,43 17,079 54W,107,Yes,,,,ASOS,,CA
ON,HARROW CDA,CXHA,XHA,7129,42 02,082 54W,191,Yes,,,,,,CA
ON,KAPUSKASING AIRP,CYYU,YYU,7183,49 25,082 28W,227,Yes,,TAF,,,,CA
ON,KAPUSKASING CDA,CXKA,XKA,7129,49 24,082 27W,218,Yes,,,,,,CA
ON,KATATOTA ISLAND,CWKK,,,49 43,088 20W,260,Yes,,,,,,CA
ON,KEMPTVILLE,CXKE,XKE,7130,45 00,075 38W,99,Yes,,,,,,CA
ON,KENORA AIRPORT,CYQK,YQK,7185,49 46,094 22W,411,Yes,,TAF,,,,CA
ON,KILLARNEY (MAPS),CWBE,WBE,7146,45 59,081 29W,196,Yes,,,,,,CA
ON,KINGSTON ARPT (M,CYGK,YGK,7162,44 13,076 35W,93,Yes,,TAF,,,,CA
ON,KIRKLAND LAKE,CXKI,,7130,48 13,080 00W,324,Yes,,,,,,CA
ON,LADRIENNE RADAR,CXLA,,,48 33,077 48W,1,,Yes,,,,,CA
ON,LAGOON CITY,CWGL,WGL,7128,44 31,079 13W,221,Yes,,,,,,CA
ON,LANSDOWNE HOUSE,CWLF,WLF,7184,52 13,087 52W,242,Yes,,,,,,CA
ON,LANSDOWNE HOUSE,CYLF,,,52 14,087 53W,242,Yes,,,,,,CA
ON,LANSDOWNE 71697,CYLH,,,52 12,087 56W,254,Obsolete,,,,,,CA
ON,LONDON CS,CWSN,,7162,43 02,081 09W,278,Yes,,TAF,,,,CA
ON,LONDON AIRPORT,CYXU,YXU,7162,43 01,081 09W,278,Yes,,TAF,,,,CA
ON,LONG POINT (MAPS,CWPS,WPS,7146,42 34,080 02W,175,Yes,,,,,,CA
ON,MARATHON,CYSP,,,48 45,086 21W,315,Yes,,TAF,,,,CA
ON,MONTREAL RIV HAR,CWGJ,,,47 14,084 35W,559,,Yes,,,,,CA
ON,MONTREAL RIV,CZGJ,,,47 15,084 36W,520,Yes,,,,,,CA
ON,MOOSONEE (SAWR),CYMO,YMO,7183,51 17,080 37W,10,Yes,,TAF,Rawinsonde,,,CA
ON,MOOSONEE,CWZC,,,51 17,080 36W,11,Yes,,,,,,CA
ON,MOOSONEE RCS,CXZC,,7130,51 18,080 37W,9,Yes,,,,,,CA
ON,MOUNT FOREST(MAR,CWLS,WLS,7163,43 58,080 45W,415,Yes,,,,,,CA
ON,MUSKOKA AIRPORT,CYQA,YQA,7163,44 58,079 17W,282,Yes,,TAF,,,,CA
ON,MUSKRAT DAM,CZMD,,,53 26,091 46W,278,Yes,,,,,,CA
ON,NAGAGAMI (MARS),CWNZ,WNZ,7183,49 45,084 10W,256,Yes,,,,,,CA
ON,NORTH BAY AIRPOR,CYYB,YYB,7173,46 21,079 25W,371,Yes,,TAF,,,,CA
ON,NORTHEAST ONT,CXTI,,,49 17,081 47W,1,Yes,,,,,,CA
ON,OGOKI POST,CYKP,YKP,,51 40,085 54W,179,Yes,,,,,,CA
ON,OLIPHANT (AUTOB),CWDF,WDF,7128,44 43,081 16W,182,Yes,,,,,,CA
ON,OSHAWA,CYOO,,,43 55,078 54W,139,Yes,,,,,,CA
ON,OTTAWA INTL,CYOW,YOW,7162,45 19,075 40W,114,Yes,,TAF+AIRMET/SIGMET,,,,CA
ON,OTTAWA CDA RCS,CXOA,,7106,45 23,075 43W,79,Yes,,,,,,CA
ON,N ONTARIO PORTAB,CXQT,XQT,,48 26,089 13W,183,Yes,,,,,,CA
ON,PARRY SOUND,CXPC,,7117,45 21,080 03W,176,Yes,,,,,,CA
ON,PEAWANUCK,CYPO,YPO,,54 59,085 26W,53,Yes,,,,,,CA
ON,PETAWAWA,CYWA,YWA,7162,45 57,077 19W,130,Yes,,TAF,Military,,,CA
ON,PETERBOROUGH ARP,CYPQ,YPQ,,44 13,078 22W,191,Yes,,TAF,,,,CA
ON,PICKLE LAKE,CYPL,YPL,7184,51 28,090 12W,373,Yes,,TAF,Rawinsonde,,,CA
ON,POINT PETRE (MAR,CWQP,WQP,7143,43 50,077 09W,79,Yes,,,,,,CA
ON,PORT COLBORNE(AU,CWPC,WPC,7146,42 52,079 15W,184,Yes,,,,,,CA
ON,PORT WELLER (MAR,CWWZ,WWZ,7143,43 15,079 13W,79,Yes,,,,,,CA
ON,PUKASKWA PARK,CWCJ,WCJ,,48 36,086 17W,206,Yes,,,,,,CA
ON,RAWSON LAKE,CYTA,,,49 40,093 44W,435,Yes,,,,,,CA
ON,RAWSON LAKE,CTRA,,,49 40,093 44W,435,Yes,,,,,,CA
ON,RED LAKE AIRPORT,CYRL,YRL,7185,51 04,093 47W,383,Yes,,TAF,,,,CA
ON,RIDGETOWN RCS,CXRG,,7130,42 27,081 53W,205,Yes,,,,,,CA
ON,ROQUEMAURE,CWGQ,WGQ,7173,48 37,079 27W,269,Yes,,,,,,CA
ON,S.E. SHOAL (MAPS,CWNB,WNB,7146,41 49,082 28W,195,Yes,,,,,,CA
ON,SANDY LAKE,CZSJ,,7109,53 04,093 21W,290,Yes,,,,,,CA
ON,SARNIA AIRPORT,CYZR,YZR,7163,43 00,082 18W,181,Yes,,TAF,,,,CA
ON,SAULT STE MARIE,CYAM,YAM,7126,46 28,084 31W,192,Yes,,TAF,,,,CA
ON,SIOUX LOOKOUT AR,CYXL,YXL,7184,50 07,091 54W,390,Yes,,TAF,,,,CA
ON,ST. CATHARINES A,CYSN,YSN,,43 12,079 10W,98,Yes,,TAF,,,,CA
QC,STERLING,CYQC,,,46 19,077 38W,139,Yes,,,,,,CA
ON,SUDBURY AIRPORT,CYSB,YSB,7173,46 38,080 48W,348,Yes,,TAF,,,,CA
ON,SUPERIOR W RADAR,CXNI,,,48 51,089 07W,1,,Yes,,,,,CA
ON,TERRACE BAY (SAW,CYTJ,YTJ,,48 49,087 05W,287,Yes,,TAF,,,,CA
ON,THUNDER BAY,CYQT,YQT,7174,48 22,089 19W,199,Yes,,TAF+AIRMET/SIGMET,,,,CA
ON,THUNDER BAY,CZTB,,,48 22,089 19W,199,Yes,,,,,,CA
ON,TIMMINS AIRPORT,CYTS,YTS,7173,48 34,081 22W,295,Yes,,TAF,,,,CA
ON,TORONTO BUTTONVI,CYKZ,YKZ,7163,43 52,079 22W,198,Yes,,TAF,,,,CA
ON,TORONTO IL  VOR,CYTZ,YTZ,7126,43 38,079 24W,77,Yes,,TAF,,,,CA
ON,TORONTO/PEARSON,CYYZ,YYZ,7162,43 40,079 37W,173,Yes,,TAF+AIRMET/SIGMET,,,,CA
ON,TORONTO CITY,CXTO,,7150,43 40,079 24W,113,Yes,,,,,,CA
ON,TRENTON (CAN MIL,CYTR,YTR,7162,44 07,077 31W,86,Yes,,TAF,,,,CA
ON,TROWBRIDGE (MAPS,CWAB,WAB,7146,48 17,088 52W,218,Yes,,,,,,CA
ON,UPPER RIDEAU LAK,CWJM,WJM,7129,44 42,076 17W,125,Yes,,,,,,CA
ON,UPSALA (MARS),CWDV,WDV,7143,49 01,090 28W,489,Yes,,,,,,CA
ON,UPSALA (RADAR),CWIM,,,49 02,090 25W,538,,Yes,,,,,CA
ON,VINELAND (AU8),CXVN,XVN,7117,43 11,079 24W,79,Yes,,,,ASOS,,CA
ON,WATERLOO WELL,CYKF,YKF,7136,43 28,080 23W,317,Yes,,TAF,,,,CA
ON,WAWA AIRPORT,CYXZ,YXZ,7173,47 58,084 46W,287,Yes,,TAF,,,,CA
ON,WELCOME ISLAND,CWEC,,7175,48 22,089 07W,209,Yes,,,,,,CA
ON,WESTERN ISL (MAP,CWMZ,WMZ,7143,45 01,080 22W,191,Yes,,,,,,CA
ON,WIARTON AIR,CYVV,YVV,7163,44 45,081 05W,222,Yes,,TAF+AIRMET/SIGMET,,,,CA
ON,WINDSOR AIRPORT,CYQG,YQG,7153,42 16,082 58W,190,Yes,,TAF,,,,CA
ON,SIMCOE (MARS),CWSI,WSI,7152,42 51,080 16W,241,Obsolete,,,,,,CA
ON,KENORA/ONT VOR,CVBI,VBI,,49 28,094 02W,394,,,,,,,CA
ON,PICKLE LAKE,CWPL,WPL,,51 28,090 12W,386,,,,Military,,,CA
ON,ALFRED,CTAE,,7136,45 33,074 53W,57,Yes,,,,,,CA
ON,ALEXANDRIA 71393,CTAL,,,45 19,074 37W,77,Obsolete,,,,,,CA
ON,MOOSE CREEK,CTCK,,7130,45 15,074 58W,85,Yes,,,,,,CA
ON,CORNWALL,CTCW,,7136,45 02,074 41W,58,Yes,,,,,,CA
ON,ALGONQUIN PARK,CTNK,,7158,45 32,078 16W,410,Yes,,,,,,CA
ON,WINCHESTER,CTWN,,7136,45 03,075 20W,75,Yes,,,,,,CA
PE,CHARLOTTETOWN AR,CYYG,YYG,7170,46 16,063 07W,54,Yes,,TAF,,,,CA
PE,CONFEDERATION BR,CXBP,,,46 14,063 44W,54,Yes,,,,,,CA
PE,EAST POINT (MARS,CWEP,WEP,7141,46 27,061 58W,11,Yes,,,,,,CA
PE,MAPLE PLAINS PEI,CXMP,,,46 18,063 35W,46,Yes,,,,,,CA
PE,NORTH POINT (AUT,CWNE,WNE,,47 04,064 00W,15,Yes,,,,,,CA
PE,ST PETERS,CZSP,,7131,46 27,062 35W,30,Yes,,,,,,CA
PE,SUMMERSIDE (AUTO,CWSD,,,46 25,063 51W,24,Yes,,,,,,CA
PE,SUMMERSIDE(CAN M,CYSU,YSU,7170,46 25,063 49W,24,Obsolete,,,,,,CA
PE,HARRINGTON CDA,CAHR,,7135,46 21,063 10W,53,Yes,,,,,,CA
QC,AMQUI,CWZS,WZS,7138,48 28,067 26W,166,Yes,,,,,,CA
QC,AKULIVIK AIRPORT,CYKO,YKO,,60 49,078 09W,9,Yes,,,,,,CA
QC,AUPALUK,CYLA,YLA,,59 17,069 35W,35,Yes,,,,,,CA
QC,BAGOTVILLE(CAN M,CYBG,YBG,7172,48 20,070 59W,159,Yes,,TAF,,,,CA
QC,BAIE COMEAU AIRP,CYBC,YBC,7118,49 07,068 12W,22,Yes,,TAF,,,,CA
QC,BARRAGE ANGLIERS,CWRC,WRC,7182,47 33,079 14W,266,Yes,,,,,,CA
QC,BEAUCEVILLE,CWHV,WHV,7132,46 12,070 46W,229,Yes,,,,,,CA
QC,BEAUPORT,CXBO,XBO,7157,46 50,071 12W,100,Yes,,,,,,CA
QC,BLANC SABLON ARP,CYBX,YBX,7180,51 27,057 10W,35,Yes,,TAF,,,,CA
QC,BONNARD(AUTO),CWKD,WKD,7138,50 44,071 01W,497,Yes,,,,,,CA
QC,BORDER (MAPS),CWTB,WTB,7190,55 19,063 13W,479,Yes,,,,,,CA
QC,CAP CHAT (MAPS),CWSG,WSG,7142,49 07,066 39W,5,Yes,,,,,,CA
QC,CAP D'ESPOIR (MA,CWRZ,WRZ,7142,48 25,064 19W,16,Yes,,,,,,CA
QC,CAP MADELEINE(MA,CWSF,WSF,7142,49 15,065 19W,29,Yes,,,,,,CA
QC,CAP TOURMENTE,CWTN,WTN,7138,47 04,070 47W,6,Yes,,,,,,CA
QC,CHAMOUCHOUANE AU,CWEE,WEE,7152,49 16,073 20W,305,Yes,,,,,,CA
QC,CHAPAIS,CWUK,,7182,49 49,074 59W,381,Yes,,,,,,CA
QC,CHARLEVOIX (MRX),CWIS,WIS,7131,47 17,070 38W,719,Yes,,,,,,CA
QC,CHARLEVOIX AIRPO,CYML,YML,,47 36,070 13W,298,Obsolete,,,,,,CA
QC,CHATHAM BROWNBRG,CMBB,,,45 37,074 25W,75,Yes,,,,,,CA
QC,CHEVERY (MARS),CWDM,WDM,7181,50 28,059 37W,6,Yes,,,,,,CA
QC,CHIBOUGAMAU CHAP,CYMT,YMT,7182,49 46,074 31W,387,Yes,,TAF,,,,CA
QC,CHUTE DES PASSES,CWDT,WDT,7152,49 53,071 15W,399,Yes,,,,,,CA
QC,DESCHAMBAULTS,CWHQ,WHQ,7138,46 41,071 58W,55,Yes,,,,,,CA
QC,EASTMAIN RIVER A,CZEM,ZEM,,52 13,078 31W,7,Yes,,,,,,CA
QC,FRELIGHSBURG,CWFQ,WFQ,7137,45 02,072 49W,152,Yes,,,,,,CA
QC,GASPE AIRPORT,CYGP,YGP,7118,48 46,064 28W,33,Yes,,TAF,,,,CA
QC,GATINEAU AIRPORT,CYND,YND,,45 31,075 34W,64,Yes,,TAF,,,,CA
QC,HARRINGTON,CMHN,,,45 48,074 39W,168,Yes,,,,,,CA
QC,HAVRE ST PIERRE,CYGV,YGV,7131,50 16,063 37W,33,Yes,,TAF,,,,CA
QC,HEATH POINT (MAP,CWHP,,7142,49 04,061 42W,4,Yes,,,,,,CA
QC,HIGH FALLS CS (A,CXHF,XHF,7139,45 50,075 39W,190,Yes,,,,,,CA
QC,ICE AUX GRUES,CWIG,WIG,,47 04,070 32W,18,Yes,,,,,,CA
QC,ICE AUX PERROQUE,CWQR,WQR,7137,50 13,064 13W,9,Yes,,,,,,CA
QC,ILE BICQUETTE,CWQO,WQO,7138,48 25,068 54W,1,Yes,,,,,,CA
QC,ILE CHARRON,CWVZ,WVZ,,45 35,073 30W,12,Yes,,,,,,CA
QC,ILE D'ORLEANS(AU,CWER,WER,7142,47 00,070 49W,5,Yes,,,,,,CA
QC,ILE ROUGE(MAPS),CWAF,WAF,7142,48 04,069 32W,5,Yes,,,,,,CA
QC,ILES DE LA MADEL,CYGR,YGR,7170,47 25,061 46W,10,Yes,,TAF,,,,CA
QC,ILES-DE-LA-MADEL,CWGR,WGR,7171,47 25,061 48W,60,Yes,,,,,,CA
QC,INUKJUAK,CYPH,YPH,7130,58 28,078 05W,25,Yes,,TAF,Rawinsonde,,,CA
QC,IVUJIVIK ARPT(SA,CYIK,YIK,,62 25,077 56W,42,Yes,,TAF,,,,CA
QC,JONQUIERE(AUTO),CWJO,WJO,7161,48 26,071 09W,133,Yes,,,,,,CA
QC,KANGIKSUALUJJUAQ,CYLU,YLU,,58 43,065 58W,60,Yes,,,,,,CA
QC,KANGIQSUJUAQ(SAW,CYKG,YKG,,61 34,071 55W,151,Yes,,,,,,CA
QC,KANGIRSUK (SAWR),CYAS,YAS,,60 01,070 00W,117,Yes,,,,,,CA
QC,KUUJJUAQ AIRPORT,CYVP,YVP,7190,58 07,068 25W,60,Yes,,TAF,Rawinsonde,,,CA
QC,KUUJJUARAPIK ARP,CYGW,YGW,7190,55 16,077 46W,12,Yes,,TAF,,,,CA
QC,L'ACADIE,CWIZ,WIZ,7137,45 17,073 20W,45,Yes,,,,,,CA
QC,L'ASSOMPTION,CWEW,WEW,7152,45 49,073 26W,21,Yes,,,,,,CA
QC,LA BAIE,CWUX,WUX,7138,48 18,070 56W,135,Yes,,,,,,CA
QC,LA GRANDE III(SA,CYAD,YAD,,53 34,076 12W,233,Yes,,,,,,CA
QC,LA GRANDE IV ARP,CYAH,YAH,7182,53 45,073 40W,306,Yes,,TAF,Rawinsonde,,,CA
QC,LA GRANDE RIVIER,CYGL,YGL,7182,53 37,077 42W,195,Yes,,TAF,,,,CA
QC,LA POCATIERE,CWST,,7171,47 21,070 01W,31,Yes,,,,,,CA
QC,LA TUQUE,CWDQ,WDQ,7137,47 25,072 47W,169,Yes,,,,,,CA
QC,LAC EON (MAPS),CWEO,WEO,7142,51 52,063 16W,561,Yes,,,,,,CA
QC,LAC MEMPHREMAGOG,CWTT,WTT,,45 16,072 10W,209,Yes,,,,,,CA
QC,LAC ST PIERRE (A,CWBS,WBS,7119,46 11,072 55W,16,Yes,,,,,,CA
QC,LATERRIERE,CXLT,,7104,48 18,071 08W,162,Yes,,,,,,CA
QC,LAUZON,CWLU,WLU,,46 50,071 10W,20,Yes,,,,,,CA
QC,LENNOXVILLE,CWQH,WQH,7161,45 22,071 49W,181,Yes,,,,,,CA
QC,LOCHABER,CMHB,,,45 38,075 12W,105,Yes,,,,,,CA
QC,LONGUE PT DE MON,CWBT,WBT,7151,50 16,064 14W,11,Yes,,,,,,CA
QC,MANIWAKI,CWMJ,WMJ,7172,46 16,076 00W,200,Yes,,,,,,CA
QC,MANIWAKI,CWMW,WMW,7172,46 22,075 58W,170,,,,Rawinsonde,,,CA
QC,MATAGAMI AIRPORT,CYNM,YNM,7182,49 46,077 49W,281,Yes,,,,,,CA
QC,MCGILL RADAR,CWMN,,,45 25,073 56W,63,,Yes,,,,,CA
QC,MC TAVISH (AUT),CWTA,WTA,7161,45 30,073 35W,63,Yes,,,,,,CA
QC,MISTOOK (AUT),CWIX,WIX,7138,48 36,071 43W,113,Yes,,,,,,CA
QC,MONT JOLI AIRPOR,CYYY,YYY,7171,48 36,068 13W,52,Yes,,TAF,,,,CA
QC,MONT ORFORD,CWHY,WHY,7161,45 19,072 15W,851,Yes,,,,,,CA
QC,MONTREAL EST,CWPQ,WPQ,7167,45 38,073 30W,6,Yes,,,,,,CA
QC,MONTREAL/DORVAL,CYUL,YUL,7162,45 28,073 44W,36,Yes,,TAF,,,,CA
QC,MONTREAL/DORVAL,CWTQ,,7118,45 28,073 45W,32,Yes,,,,,,CA
QC,MONTREAL/MIRABEL,CYMX,YMX,7162,45 40,074 01W,82,Yes,,TAF,TAF,,,CA
QC,NATASHQUAN AIRP,CYNA,YNA,7181,50 10,061 49W,11,Yes,,TAF,,,,CA
QC,NEMISCAU ARPT(SA,CYHH,YHH,,51 42,076 07W,244,Yes,,,,,,CA
QC,NEW CARLISLE1,CWOC,WOC,7161,48 01,065 19W,47,Yes,,,,,,CA
QC,NICOLET (AUTOB),CWNQ,WNQ,7172,46 13,072 39W,10,Yes,,,,,,CA
QC,NORMANDIN,CWOD,WOD,7137,48 51,072 33W,137,Yes,,,,,,CA
QC,ONATCHIWAY,CWXC,WXC,7138,48 53,071 02W,300,Yes,,,,,,CA
QC,PARC DES LAURENT,CWPD,WPD,7138,47 34,071 13W,803,Yes,,,,,,CA
QC,PARENT (MARS),CWPK,WPK,7172,47 55,074 37W,442,Yes,,,,,,CA
QC,POINTE DES MONTS,CWTG,WTG,7142,49 19,067 22W,5,Yes,,,,,,CA
QC,POINTE NOIRES CS,CWIP,WIP,7139,50 10,066 26W,25,Yes,,,,,,CA
QC,PORT MENIER (MAR,CWBY,WBY,7181,49 49,064 17W,53,Yes,,,,,,CA
QC,PUVIRGNITUQ,CYPX,YPX,,60 02,077 16W,23,Yes,,TAF,,,,CA
QC,POINTE CLAVEAU,CWQV,WQV,7118,48 16,070 07W,1,Yes,,,,,,CA
QC,QUAQTAQ AIRPORT,CYHA,YQC,7190,61 02,069 37W,30,Yes,,TAF,,,,CA
QC,QUEBEC,CYQB,YQB,7171,46 47,071 22W,73,Yes,,TAF+AIRMET/SIGMET,,,,CA
QC,RAWDON,CMWD,,,46 01,073 49W,210,Yes,,,,,,CA
QC,RIVIERE DU LOUP,CWNH,,7171,47 47,069 32W,148,Yes,,,,,,CA
QC,ROBERVAL AIRPORT,CYRJ,YRJ,7172,48 31,072 16W,179,Yes,,TAF,,,,CA
QC,ROUYN AIRPORT,CYUY,YUY,,48 12,078 49W,301,Yes,,TAF,,,,CA
QC,SAINT HUBERT ARP,CYHU,YHU,7137,45 31,073 25W,27,Yes,,TAF,,,,CA
QC,SAINT LOUIS,CMLI,,,45 52,073 00W,31,Yes,,,,,,CA
QC,SALLIUT ARPT (SA,CYZG,YZG,,62 10,075 40W,226,Yes,,,,,,CA
QC,SCHEFFERVILLE AR,CYKL,YKL,7182,54 47,066 49W,521,Yes,,TAF,,,,CA
QC,SEPT ILES AIRPOR,CYZV,YZV,7181,50 13,066 16W,55,Yes,,TAF,Rawinsonde,,,CA
QC,SEPT ILES,CXZV,,,50 13,066 15W,52,Yes,,,,,,CA
QC,SHAWINIGAN,CXSH,XSH,7137,46 35,072 44W,110,Yes,,,,,,CA
QC,SHERBROOKE,CYSC,YSC,7161,45 26,071 41W,241,Yes,,TAF+AIRMET/SIGMET,,,,CA
QC,ST ANICET,CWBZ,WBZ,7171,45 07,074 16W,49,Yes,,,,,,CA
QC,ST FOY/U LAVAL,CWJB,WJB,7139,46 47,071 16W,91,Yes,,,,,,CA
QC,ST GEDEON,CWIU,WIU,,48 29,071 47W,103,Yes,,,,,,CA
QC,ST HENRI,CWIA,WIA,,48 39,071 51W,103,Yes,,,,,,CA
QC,ST JOVITE (AUTOB,CWJT,WJT,7137,46 04,074 34W,239,Yes,,,,,,CA
QC,ST CLOTHILDE (A,CWIT,WIT,7161,45 10,073 40W,52,Yes,,,,,,CA
QC,STE ANNE DE BELL,CWVQ,WVQ,7137,45 25,073 55W,39,Yes,,,,,,CA
QC,TASIUJAQ A,CYTQ,YTQ,,58 40,069 57W,31,Yes,,TAF,,,,CA
QC,TEMISCAMINQUE,CWBA,,7173,46 43,079 06W,181,Yes,,,,,,CA
QC,TROIS RIVIERES,CWTY,WTY,7172,46 21,072 31W,6,Yes,,,,,,CA
QC,TROIS RIVIERES,CYRQ,,,46 21,072 41W,61,Yes,,TAF,,,,CA
QC,UMIUJAQ,CYMU,YMU,,56 31,076 31W,71,Yes,,,,,,CA
QC,VAL D'OR AIRPORT,CYVO,YVO,7172,48 04,077 46W,337,Yes,,TAF,,,,CA
QC,VALCARTIER AIRPO,CYOY,YOY,7171,46 53,071 30W,168,Yes,,TAF,Military,,,CA
QC,VARENNES,CWHM,WHM,7118,45 43,073 22W,192,Yes,,,,,,CA
QC,VILLEROY RADAR,CWVY,WVY,7161,46 27,071 55W,108,Yes,,,,,,CA
QC,WASKAGANISH AIRP,CYKQ,YKQ,,51 28,078 45W,23,Yes,,TAF,,,,CA
QC,WEMINDJI,CYNC,YNC,,53 01,078 49W,14,Yes,,,,,,CA
QC,INUKJUAK,CWPH,WPH,,58 27,078 07W,253,,,,Military,,,CA
QC,VALCARTIER,CWQG,WQG,7115,46 53,071 30W,168,Obsolete,,,,,,CA
QC,VAL D IRENE RADR,CXAM,,,48 29,067 36W,583,,Yes,,,,,CA
QC,BEAUHARNOS,CMBR,,,45 19,073 55W,22,Yes,,,,,,CA
QC,ST CONSTANT,CMCT,,,45 20,073 35W,39,Yes,,,,,,CA
QC,COVEY HILL,CMCW,,,45 01,073 52W,262,Yes,,,,,,CA
QC,FORET MONTMORENC,CMFM,,7121,47 19,071 09W,672,Yes,,,,,,CA
QC,GRANBY,CMGB,,,45 22,072 46W,86,Yes,,,,,,CA
QC,HOWICK,CMHW,,,45 10,073 52W,42,Yes,,,,,,CA
QC,L ARTIFICE,CMLA,,,45 04,073 50W,61,Yes,,,,,,CA
QC,PIEDMONT,CMPD,,,45 53,074 06W,175,Yes,,,,,,CA
QC,S POLYCARPE71306,CMPL,,,45 18,074 18W,56,Obsolete,,,,,,CA
QC,ROUGEMONT,CMRG,,,45 25,073 03W,54,Yes,,,,,,CA
QC,RIGAUD,CMRI,,7130,45 29,074 18W,30,Yes,,,,,,CA
QC,RUSSELTOWN,CMRU,,,45 03,073 48W,65,Yes,,,,,,CA
QC,RUISSEAU CRANB,CMRY,,,45 07,073 41W,59,Yes,,,,,,CA
QC,ST SABINE,CMSB,,,45 13,073 01W,49,Yes,,,,,,CA
QC,ST CELESTIN,CMSC,,,46 12,072 27W,55,Yes,,,,,,CA
QC,ST M-D-NAPIERVIL,CMSX,,,45 11,073 37W,59,Yes,,,,,,CA
QC,ST CHRYSOSTOME,CMYT,,,45 08,073 46W,55,Yes,,,,,,CA
SK,ASSINIBOIA ARPT,CWJI,WJI,7148,49 43,105 55W,724,Yes,,,,,,CA
SK,BROADVIEW,CWIK,WIK,7186,50 22,102 35W,602,Yes,,,Military,,,CA
SK,BRATTS LAKE,CXBK,XBK,7156,50 12,104 42W,580,Yes,,,,,,CA
SK,BROADVIEW CS,CWXU,,7173,50 23,102 41W,600,Yes,,,,,,CA
SK,BUFFALO NARROWS,CWVT,WVT,7107,55 49,108 25W,434,Yes,,,,,,CA
SK,BUFFALO NARROWS,CYVT,YVT,,55 49,108 25W,434,Yes,,TAF,Military,,,CA
SK,CANDLE LAKE,CWLZ,WLZ,7114,53 44,105 16W,503,,,TAF,,,,CA
SK,CLUFF LAKE,CXXX,,7107,58 23,109 31W,339,Yes,,,,,,CA
SK,CORONACH SPC,CWAQ,WAQ,7151,49 03,105 29W,756,Yes,,,,,,CA
SK,CYPRESS HILLS PA,CWVP,WVP,7113,49 38,109 31W,271,Yes,,TAF,,,,CA
SK,EASTEND CYPRESS,CWEH,WEH,7113,49 25,108 58W,078,Yes,,,,,,CA
SK,ELBOW (MARS),CWOK,WOK,7145,51 07,106 34W,595,Yes,,,,,,CA
SK,ESTEVAN AIRPORT,CYEN,YEN,7186,49 13,102 58W,581,Yes,,TAF,,,,CA
SK,HUDSON BAY,CYHB,YHB,7186,52 49,102 19W,358,Yes,,,,,,CA
SK,INDIAN HEAD CDA,CWBD,WBD,7119,50 33,103 39W,582,Yes,,,,,,CA
SK,JIMMY LAKE,CWHN,WHN,,54 53,109 58W,636,Yes,,,,,,CA
SK,KEY LAKE,CYKJ,YKJ,7148,57 15,105 37W,509,Yes,,TAF,,,,CA
SK,KINDERSLEY,CYKY,YKY,7112,51 31,109 10W,694,Yes,,,,,,CA
SK,LA RONGE AIRPORT,CYVC,YVC,7192,55 09,105 16W,379,Yes,,TAF,,,,CA
SK,LA RONGE AIRPORT,CXOX,XOX,7158,55 09,105 16W,379,Yes,,,,,,CA
SK,LEADER ARPT (AUT,CWJX,WJX,7145,50 53,109 30W,672,Yes,,,,,,CA
SK,LUCKY LAKE (AUTO,CWLE,WLE,7145,50 57,107 09W,665,Yes,,,,,,CA
SK,MAPLECREEK (AUTO,CWMQ,WMQ,7145,49 54,109 28W,767,Yes,,,,,,CA
SK,MEADOW LAKE AIRP,CYLJ,YLJ,7112,54 07,108 31W,480,Yes,,,,,,CA
SK,MELFORT (AUTOB),CWFF,WFF,7145,52 49,104 35W,490,Yes,,,,,,CA
SK,MOOSE JAW (CAN M,CYMJ,YMJ,7186,50 19,105 32W,577,Yes,,TAF,,,,CA
SK,MOOSE JAW,CZMJ,,,50 20,105 34W,577,Yes,,,,,,CA
SK,NIPAWIN AIRPORT,CYBU,YBU,7113,53 19,104 00W,374,Yes,,,,,,CA
SK,NIPAWIN,CWBU,,,53 20,104 01W,373,Yes,,,,,,CA
SK,NORTH BATTLEFORD,CYQW,YQW,7187,52 46,108 15W,548,Yes,,TAF,,,,CA
SK,PRINCE ALBERT AR,CYPA,YPA,7186,53 13,105 40W,428,Yes,,TAF,,,,CA
SK,REGINA AIRPORT,CYQR,YQR,7186,50 26,104 40W,577,Yes,,TAF,,,,CA
SK,REGINA UNIVERSIT,CWDJ,WDJ,7151,50 24,104 35W,573,Yes,,,,,,CA
SK,ROCKGLEN (MARS),CWKO,WKO,7113,49 10,105 58W,917,Yes,,,,,,CA
SK,ROSETOWN EAST (A,CWRJ,WRJ,7151,51 34,107 55W,586,Yes,,,,,,CA
SK,SASKATOON AIRPOR,CYXE,YXE,7186,52 10,106 42W,504,Yes,,TAF,Rawinsonde,,,CA
SK,SOUTHEND (AUTOB),CWJH,WJH,7145,56 19,103 16W,344,Yes,,,,,,CA
SK,SPIRITWOOD WEST,CWSR,WSR,7113,53 22,107 32W,584,Yes,,,,,,CA
SK,STONY RAPIDS ARP,CYSF,YSF,7113,59 15,105 49W,250,Yes,,TAF,,,,CA
SK,SWIFT CURREN,CYYN,YYN,7187,50 16,107 40W,818,Yes,,TAF+AIRMET/SIGMET,,,,CA
SK,URANIUM CITY(MAR,CWDC,WDC,7107,59 34,108 28W,318,Yes,,,,,,CA
SK,VAL MARIE SE(AUT,CWVN,WVN,7113,49 04,107 34W,785,Yes,,,,,,CA
SK,WATROUS EAST (AU,CWIW,WIW,7151,51 40,105 24W,526,Yes,,,,,,CA
SK,WEYBURN (AUTOB),CWWF,WWF,7145,49 42,103 48W,589,Yes,,,,,,CA
SK,WYNYARD (AUT),CWOY,WOY,7186,51 46,104 12W,560,Yes,,,,,,CA
SK,YORKTON AIRPORT,CYQV,YQV,7129,51 16,102 28W,498,Yes,,TAF+AIRMET/SIGMET,,,,CA
SK,WALDRON VOR,CYDR,YDR,,50 22,102 32W,615,,,,,,,CA
SK,CANADA ARTCC,CZFD,ZFD,,59 19,107 11W,131,,,ARTCC,,,,CA
YT,BEAVER CREEK ARP,CYXQ,YXQ,,62 25,140 52W,649,Yes,,,,,,CA
YT,BURWASH,CYDB,YDB,7196,61 22,139 03W,801,Yes,,TAF,,,,CA
YT,CARMACKS,CXCK,XCK,7103,62 07,136 12W,540,Yes,,,,,,CA
YT,DAWSON AIRPORT,CYDA,YDA,7196,64 02,139 07W,369,Yes,,TAF,,,,CA
YT,FARO (MARS),CWUM,WUM,7194,62 13,133 20W,717,Yes,,,,,,CA
YT,FARO APT ARTCC,CZFA,ZFA,,62 12,133 22W,717,Yes,,TAF,,,,CA
YT,HAINES JUNCTION,CWHT,WHT,7150,60 46,137 35W,599,Yes,,,,,,CA
YT,HERSCHEL ISLAND,CWJN,,7150,69 34,138 55W,1,Yes,,,,,,CA
YT,KOMAKUK BEACH,CWKM,WKM,7104,69 36,140 10W,13,Yes,,,,,,CA
YT,MARGARET LAKE,CWZR,,7197,68 48,140 51W,543,Yes,,,,,,CA
YT,MAYO AIRPORT,CYMA,,7196,63 37,135 52W,504,Yes,,TAF,,,,CA
YT,OLD CROW AIRPORT,CYOC,YOC,,67 34,139 49W,251,Yes,,TAF,,,,CA
YT,SHINGLE POINT AR,CYUA,YUA,7196,68 57,137 17W,38,Yes,,,,,,CA
YT,STORM HILLS,CWVH,WVH,7105,68 54,133 56W,261,Yes,,,,,,CA
YT,TESLIN (MARS),CWZW,WZW,,60 10,132 44W,705,Yes,,,,,,CA
YT,TESLIN ARPT (AUT,CYZW,YZW,7104,60 10,132 45W,705,Yes,,TAF,,,,CA
YT,WATSON LAKE AIRP,CYQH,YQH,7195,60 07,128 49W,690,Yes,,TAF,,,,CA
YT,WATSON LAKE,CXQH,,7119,60 07,128 49W,690,Yes,,,,,,CA
YT,WHITEHORSE AIRPO,CYXY,YXY,7196,60 43,135 04W,703,Yes,,TAF,Rawinsonde,,,CA
